SEEDS II (CO-66)        
1 32791U 08021J   26068.92109284  .00023758  00000+0  84213-3 0  9995
2 32791  97.7519  62.3611 0001448 359.2618   0.8619 15.29097235972108
STARLINK-30358          
1 57879U 23144R   26067.98805295 -.00003016  00000+0 -10013-3 0  9996
2 57879  43.0019 288.8588 0001714 277.1057  82.9600 15.27573323137536
